OBJECT_NAME,OBJECT_ID,EPOCH,MEAN_MOTION,ECCENTRICITY,INCLINATION,RA_OF_ASC_NODE,ARG_OF_PERICENTER,MEAN_ANOMALY,EPHEMERIS_TYPE,CLASSIFICATION_TYPE,NORAD_CAT_ID,ELEMENT_SET_NO,REV_AT_EPOCH,BSTAR,MEAN_MOTION_DOT,MEAN_MOTION_DDOT
2026-134G,2026-134G,2026-07-01T12:06:50.534784,15.09741815,.00149697,97.7042,252.6805,224.7411,135.2611,0,U,69544,999,246,.385254E-3,.6166E-4,0
2026-134H,2026-134H,2026-07-01T15:16:41.536704,15.09807794,.00147758,97.7025,252.8118,225.8112,134.1903,0,U,69545,999,247,.34435451E-3,.5514E-4,0
STARLINK-37880,2026-135A,2026-07-01T12:32:02.356800,15.81000344,.00011389,97.2835,210.3468,274.0553,86.0585,0,U,69546,999,252,.18490009E-2,.372717E-2,0
STARLINK-37881,2026-135B,2026-07-01T11:00:03.760704,15.81053465,.00016577,97.2830,210.2802,111.6961,248.4484,0,U,69547,999,251,.20825539E-2,.423305E-2,0
STARLINK-37265,2026-135C,2026-07-01T10:59:05.515008,15.81085653,.00022013,97.2834,210.2809,118.1719,241.9771,0,U,69548,999,251,.24530436E-2,.504073E-2,0
STARLINK-37871,2026-135D,2026-07-01T10:57:45.086112,15.81051795,.00011362,97.2832,210.2827,117.8199,242.3184,0,U,69549,999,251,.20978649E-2,.426561E-2,0
STARLINK-37865,2026-135E,2026-07-01T10:55:39.285984,15.81044817,.0000557,97.2838,210.2843,42.0176,318.1135,0,U,69550,999,251,.14531244E-2,.290708E-2,0
STARLINK-37862,2026-135F,2026-07-01T19:58:35.497056,15.80944619,.00006037,97.2814,210.6895,35.3976,324.7333,0,U,69551,999,257,.14348396E-2,.285566E-2,0
STARLINK-37861,2026-135G,2026-07-01T19:55:51.297312,15.80861763,.00014671,97.2838,210.6932,90.5581,269.5855,0,U,69552,999,257,.14831193E-2,.294358E-2,0
STARLINK-37859,2026-135H,2026-07-01T10:47:10.465152,15.81380596,.00024394,97.2847,210.2913,131.4105,228.7373,0,U,69553,999,251,-.57908196E-2,-.101461E-1,0
STARLINK-37860,2026-135J,2026-07-01T19:54:31.600224,15.80528417,.0002866,97.2833,210.6944,71.4385,288.7194,0,U,69554,999,257,.96470965E-2,.2067125E-1,0
STARLINK-37858,2026-135K,2026-07-01T19:51:29.683296,15.80920852,.00017913,97.2837,210.6978,56.8935,303.2505,0,U,69555,999,257,.19728388E-2,.397379E-2,0
STARLINK-37927,2026-135L,2026-07-01T19:51:08.584416,15.81017287,.00010712,97.2827,210.6968,335.3137,24.8080,0,U,69556,999,257,.22579181E-2,.460197E-2,0
STARLINK-37929,2026-135M,2026-07-01T19:49:56.673696,15.80912964,.00014749,97.2842,210.6983,66.0377,294.1046,0,U,69557,999,257,.18852472E-2,.378777E-2,0
STARLINK-37954,2026-135N,2026-07-01T19:48:11.589696,15.81055445,.00018673,97.2841,210.7005,22.1357,337.9992,0,U,69558,999,257,.24271949E-2,.497712E-2,0
STARLINK-37958,2026-135P,2026-07-01T19:44:38.457312,15.80859984,.00017228,97.2844,210.7041,64.5776,295.5670,0,U,69559,999,257,.11482796E-2,.226058E-2,0
STARLINK-37950,2026-135Q,2026-07-01T19:44:25.855872,15.81006568,.0001501,97.2846,210.7044,31.1885,328.9472,0,U,69560,999,257,.26564893E-2,.546659E-2,0
STARLINK-37952,2026-135R,2026-07-01T19:42:25.276032,15.81200142,.00021525,97.2834,210.7062,6.5541,353.5755,0,U,69561,999,257,.27045381E-2,.562488E-2,0
STARLINK-37935,2026-135S,2026-07-01T19:41:18.937248,15.80960367,.00028114,97.2838,210.7073,61.2353,298.9198,0,U,69562,999,257,.22110881E-2,.448866E-2,0
STARLINK-37936,2026-135T,2026-07-01T22:00:01.999584,15.80771149,.00015174,97.2840,210.8261,83.6728,144.2725,0,U,69563,999,368,.31735757E-3,.60949E-3,0
STARLINK-37932,2026-135U,2026-07-01T21:01:50.131488,15.80858467,.00012618,97.2838,210.7841,93.2666,266.8746,0,U,69564,999,258,.12000517E-2,.236524E-2,0
STARLINK-37916,2026-135V,2026-07-01T21:01:03.538560,15.81139389,.00014941,97.2827,210.7857,23.4500,336.6836,0,U,69565,999,258,.20837472E-2,.425314E-2,0
STARLINK-37909,2026-135W,2026-07-01T20:51:57.688416,15.80772366,.00020458,97.2820,210.7946,83.9701,276.1801,0,U,69566,999,258,.18634552E-2,.371698E-2,0
STARLINK-37934,2026-135X,2026-07-01T19:25:25.229856,15.80865303,.00018469,97.2836,210.7225,66.6624,293.4839,0,U,69567,999,257,.12128984E-2,.239209E-2,0
STARLINK-37938,2026-135Y,2026-07-01T20:53:03.627168,15.80797451,.00027253,97.2813,210.7931,82.9006,277.2572,0,U,69568,999,258,.18975184E-2,.379268E-2,0
STARLINK-37924,2026-135Z,2026-07-01T20:49:04.832256,15.80830802,.00014022,97.2836,210.7962,81.8330,278.3097,0,U,69569,999,258,.75467159E-3,.146973E-2,0
SHIJIAN-31 (SJ-31),2026-136A,2026-07-01T12:58:40.359360,1.92228463,.6940835,63.4810,354.6001,171.7894,212.4420,0,U,69570,999,36,0,-.423E-5,0
GUOWANG OBJECT A,2026-137A,2026-07-01T17:55:59.210976,13.89813887,.00126329,49.9998,197.4194,273.5332,86.4122,0,U,69572,999,204,.82426682E-4,-.44E-6,0
GUOWANG OBJECT B,2026-137B,2026-07-01T17:51:45.766944,13.89805461,.00118526,49.9996,197.4027,272.7067,87.2474,0,U,69573,999,205,.56842857E-4,-.76E-6,0
