2026-134G               
1 69544U 26134G   26182.50475156  .00006166  00000+0  38525-3 0  9990
2 69544  97.7042 252.6805 0014969 224.7411 135.2611 15.09741815  2469
2026-134H               
1 69545U 26134H   26182.63659186  .00005514  00000+0  34435-3 0  9994
2 69545  97.7025 252.8118 0014775 225.8112 134.1903 15.09807794  2477
STARLINK-37880          
1 69546U 26135A   26182.52224950  .00372717  00000+0  18490-2 0  9995
2 69546  97.2835 210.3468 0001138 274.0553  86.0585 15.81000344  2526
STARLINK-37881          
1 69547U 26135B   26182.45837686  .00423305  00000+0  20826-2 0  9990
2 69547  97.2830 210.2802 0001657 111.6961 248.4484 15.81053465  2511
STARLINK-37265          
1 69548U 26135C   26182.45770272  .00504073  00000+0  24530-2 0  9996
2 69548  97.2834 210.2809 0002201 118.1719 241.9771 15.81085653  2513
STARLINK-37871          
1 69549U 26135D   26182.45677183  .00426561  00000+0  20979-2 0  9992
2 69549  97.2832 210.2827 0001136 117.8199 242.3184 15.81051795  2519
STARLINK-37865          
1 69550U 26135E   26182.45531581  .00290708  00000+0  14531-2 0  9994
2 69550  97.2838 210.2843 0000557  42.0176 318.1135 15.81044817  2510
STARLINK-37862          
1 69551U 26135F   26182.83235529  .00285566  00000+0  14348-2 0  9992
2 69551  97.2814 210.6895 0000603  35.3976 324.7333 15.80944619  2578
STARLINK-37861          
1 69552U 26135G   26182.83045483  .00294358  00000+0  14831-2 0  9997
2 69552  97.2838 210.6932 0001467  90.5581 269.5855 15.80861763  2574
STARLINK-37859          
1 69553U 26135H   26182.44942668 -.01014610  00000+0 -57908-2 0  9992
2 69553  97.2847 210.2913 0002439 131.4105 228.7373 15.81380596  2514
STARLINK-37860          
1 69554U 26135J   26182.82953241  .02067125  00000+0  96471-2 0  9990
2 69554  97.2833 210.6944 0002866  71.4385 288.7194 15.80528417  2573
STARLINK-37858          
1 69555U 26135K   26182.82742689  .00397379  00000+0  19728-2 0  9998
2 69555  97.2837 210.6978 0001791  56.8935 303.2505 15.80920852  2577
STARLINK-37927          
1 69556U 26135L   26182.82718269  .00460197  00000+0  22579-2 0  9993
2 69556  97.2827 210.6968 0001071 335.3137  24.8080 15.81017287  2570
STARLINK-37929          
1 69557U 26135M   26182.82635039  .00378777  00000+0  18852-2 0  9998
2 69557  97.2842 210.6983 0001474  66.0377 294.1046 15.80912964  2575
STARLINK-37954          
1 69558U 26135N   26182.82513414  .00497712  00000+0  24272-2 0  9995
2 69558  97.2841 210.7005 0001867  22.1357 337.9992 15.81055445  2577
STARLINK-37958          
1 69559U 26135P   26182.82266733  .00226058  00000+0  11483-2 0  9998
2 69559  97.2844 210.7041 0001722  64.5776 295.5670 15.80859984  2577
STARLINK-37950          
1 69560U 26135Q   26182.82252148  .00546659  00000+0  26565-2 0  9994
2 69560  97.2846 210.7044 0001501  31.1885 328.9472 15.81006568  2574
STARLINK-37952          
1 69561U 26135R   26182.82112588  .00562488  00000+0  27045-2 0  9990
2 69561  97.2834 210.7062 0002152   6.5541 353.5755 15.81200142  2572
STARLINK-37935          
1 69562U 26135S   26182.82035807  .00448866  00000+0  22111-2 0  9991
2 69562  97.2838 210.7073 0002811  61.2353 298.9198 15.80960367  2574
STARLINK-37936          
1 69563U 26135T   26182.91668981  .00060949  00000+0  31736-3 0  9993
2 69563  97.2840 210.8261 0001517  83.6728 144.2725 15.80771149  3684
STARLINK-37932          
1 69564U 26135U   26182.87627467  .00236524  00000+0  12001-2 0  9990
2 69564  97.2838 210.7841 0001261  93.2666 266.8746 15.80858467  2580
STARLINK-37916          
1 69565U 26135V   26182.87573540  .00425314  00000+0  20837-2 0  9996
2 69565  97.2827 210.7857 0001494  23.4500 336.6836 15.81139389  2588
STARLINK-37909          
1 69566U 26135W   26182.86941769  .00371698  00000+0  18635-2 0  9996
2 69566  97.2820 210.7946 0002045  83.9701 276.1801 15.80772366  2585
STARLINK-37934          
1 69567U 26135X   26182.80931979  .00239209  00000+0  12129-2 0  9996
2 69567  97.2836 210.7225 0001846  66.6624 293.4839 15.80865303  2579
STARLINK-37938          
1 69568U 26135Y   26182.87018087  .00379268  00000+0  18975-2 0  9995
2 69568  97.2813 210.7931 0002725  82.9006 277.2572 15.80797451  2584
STARLINK-37924          
1 69569U 26135Z   26182.86741704  .00146973  00000+0  75467-3 0  9999
2 69569  97.2836 210.7962 0001402  81.8330 278.3097 15.80830802  2585
SHIJIAN-31 (SJ-31)      
1 69570U 26136A   26182.54074490 -.00000423  00000+0  00000+0 0  9995
2 69570  63.4810 354.6001 6940835 171.7894 212.4420  1.92228463   363
GUOWANG OBJECT A        
1 69572U 26137A   26182.74721309 -.00000044  00000+0  82427-4 0  9995
2 69572  49.9998 197.4194 0012632 273.5332  86.4122 13.89813887  2048
GUOWANG OBJECT B        
1 69573U 26137B   26182.74427971 -.00000076  00000+0  56843-4 0  9992
2 69573  49.9996 197.4027 0011852 272.7067  87.2474 13.89805461  2050
